FLYING LAPTOP           
1 42831U 17042G   24129.89390890  .00002457  00000+0  23003-3 0  9994
2 42831  97.3850 313.1262 0012343 203.3823 156.6839 14.94873027371266
